NORAD_CAT_ID,OBJECT_NAME,OBJECT_TYPE,EPOCH,MEAN_MOTION,ECCENTRICITY,INCLINATION,RA_OF_ASC_NODE,ARG_OF_PERICENTER,MEAN_ANOMALY,BSTAR,MEAN_MOTION_DOT,MEAN_MOTION_DDOT,TLE_LINE0,TLE_LINE1,TLE_LINE2,SEMIMAJOR_AXIS,PERIOD,APOGEE,PERIGEE,DECAYED
51997.0,STARLINK-3589,PAYLOAD,2022-09-17 09:07:21,15.08825537,0.0001333,53.2182,317.2693,93.1737,266.9408,-0.00011186,-2.067e-05,0.0,0 STARLINK-3589,1 51997U 22025AT  22260.38010963 -.00002067  00000-0 -11186-3 0  9991,2 51997  53.2182 317.2693 0001333  93.1737 266.9408 15.08825537 29285,6917.925,95.438,540.712,538.867,0.0
51997.0,STARLINK-3589,PAYLOAD,2022-09-18 10:33:31,15.08831499,0.0001337,53.2176,312.5127,77.7548,282.3594,-2.5958e-05,-7.01e-06,0.0,0 STARLINK-3589,1 51997U 22025AT  22261.43995142 -.00000701  00000-0 -25958-4 0  9995,2 51997  53.2176 312.5127 0001337  77.7548 282.3594 15.08831499 29440,6917.906,95.438,540.696,538.846,0.0
51997.0,STARLINK-3589,PAYLOAD,2022-09-19 04:02:45,15.08834231,0.000131,53.2173,309.2433,61.0107,299.1016,0.00014823,2.072e-05,0.0,0 STARLINK-3589,1 51997U 22025AT  22262.16858751  .00002072  00000-0  14823-3 0  9999,2 51997  53.2173 309.2433 0001310  61.0107 299.1016 15.08834231 31072,6917.898,95.438,540.669,538.857,0.0
51997.0,STARLINK-3589,PAYLOAD,2022-09-19 08:48:55,15.08838373,0.0001314,53.2173,308.3507,64.4141,295.6987,0.0001729,2.465e-05,0.0,0 STARLINK-3589,1 51997U 22025AT  22262.36730439  .00002465  00000-0  17290-3 0  9990,2 51997  53.2173 308.3507 0001314  64.4141 295.6987 15.08838373 29585,6917.885,95.438,540.659,538.841,0.0
51997.0,STARLINK-3589,PAYLOAD,2022-09-20 03:53:32,15.08843325,0.0001311,53.2166,304.7822,61.692,298.4204,5.3477e-05,5.63e-06,0.0,0 STARLINK-3589,1 51997U 22025AT  22263.16218642  .00000563  00000-0  53477-4 0  9991,2 51997  53.2166 304.7822 0001311  61.6920 298.4204 15.08843325 29708,6917.87,95.437,540.6419999999998,538.828,0.0
51997.0,STARLINK-3589,PAYLOAD,2022-09-21 05:19:43,15.08839114,0.0001481,53.2174,300.0249,67.7806,292.3343,-8.9307e-05,-1.709e-05,0.0,0 STARLINK-3589,1 51997U 22025AT  22264.22203407 -.00001709  00000-0 -89307-4 0  9998,2 51997  53.2174 300.0249 0001481  67.7806 292.3343 15.08839114 29862,6917.8830000000025,95.438,540.773,538.724,0.0
51997.0,STARLINK-3589,PAYLOAD,2022-09-22 11:32:03,15.08834902,0.0001666999999999,53.2169,294.3756,63.0682,297.0481,3.2999e-05,2.37e-06,0.0,0 STARLINK-3589,1 51997U 22025AT  22265.48059126  .00000237  00000-0  32999-4 0  9992,2 51997  53.2169 294.3756 0001667  63.0682 297.0481 15.08834902 31577,6917.896,95.438,540.914,538.6080000000002,0.0
51997.0,STARLINK-3589,PAYLOAD,2022-09-23 11:22:49,15.08843615,0.0001636999999999,53.2167,289.9144,62.3241,297.7917,2.0525e-05,3.9e-07,0.0,0 STARLINK-3589,1 51997U 22025AT  22266.47418682  .00000039  00000-0  20525-4 0  9990,2 51997  53.2167 289.9144 0001637  62.3241 297.7917 15.08843615 31725,6917.869000000002,95.437,540.867,538.602,0.0
51997.0,STARLINK-3589,PAYLOAD,2022-09-24 11:13:37,15.08815654,0.0001735,53.2165,285.4538,59.1172,300.999,0.00020516,2.976e-05,0.0,0 STARLINK-3589,1 51997U 22025AT  22267.46779777  .00002976  00000-0  20516-3 0  9996,2 51997  53.2165 285.4538 0001735  59.1172 300.9990 15.08815654 31873,6917.955,95.439,541.02,538.62,0.0
51997.0,STARLINK-3589,PAYLOAD,2022-09-25 07:53:37,15.08845887,0.0001617,53.2162,281.5872,58.0449,302.07,3.4621e-05,2.63e-06,0.0,0 STARLINK-3589,1 51997U 22025AT  22268.32890747  .00000263  00000-0  34621-4 0  9993,2 51997  53.2162 281.5872 0001617  58.0449 302.0700 15.08845887 32001,6917.861999999999,95.437,540.846,538.609,0.0
51997.0,STARLINK-3589,PAYLOAD,2022-09-25 12:39:47,15.08840551,0.00016,53.2159,280.6955,58.2924,301.8224,-1.8938e-06,-3.18e-06,0.0,0 STARLINK-3589,1 51997U 22025AT  22268.52763163 -.00000318  00000-0 -18938-5 0  9993,2 51997  53.2159 280.6955 0001600  58.2924 301.8224 15.08840551 32035,6917.879,95.438,540.851,538.637,0.0
51997.0,STARLINK-3589,PAYLOAD,2022-09-26 12:30:35,15.08828393,0.0001501,53.216,276.2354,54.9936,305.1197,-3.9988e-05,-9.24e-06,0.0,0 STARLINK-3589,1 51997U 22025AT  22269.52124265 -.00000924  00000-0 -39988-4 0  9998,2 51997  53.2160 276.2354 0001501  54.9936 305.1197 15.08828393 30660,6917.916,95.438,540.819,538.742,0.0
51997.0,STARLINK-3589,PAYLOAD,2022-09-27 10:45:59,15.08839187,0.000153,53.2155,272.0726,55.7035,304.4102,-4.1734e-05,-9.52e-06,0.0,0 STARLINK-3589,1 51997U 22025AT  22270.44860019 -.00000952  00000-0 -41734-4 0  9998,2 51997  53.2155 272.0726 0001530  55.7035 304.4102 15.08839187 32328,6917.8830000000025,95.438,540.806,538.689,0.0
51997.0,STARLINK-3589,PAYLOAD,2022-09-28 09:01:23,15.088323999999998,0.0001530999999999,53.2158,267.909,54.0577,306.0557,4.7293e-05,4.65e-06,0.0,0 STARLINK-3589,1 51997U 22025AT  22271.37596101  .00000465  00000-0  47293-4 0  9992,2 51997  53.2158 267.9090 0001531  54.0577 306.0557 15.08832400 30941,6917.904,95.438,540.828,538.7090000000002,0.0
51997.0,STARLINK-3589,PAYLOAD,2022-09-28 23:19:51,15.0883506,0.0001655,53.216,265.2318,54.3183,305.7963,5.5114e-05,5.89e-06,0.0,0 STARLINK-3589,1 51997U 22025AT  22271.97212124  .00000589  00000-0  55114-4 0  9996,2 51997  53.2160 265.2318 0001655  54.3183 305.7963 15.08835060 32552,6917.895,95.438,540.905,538.616,0.0
51997.0,STARLINK-3589,PAYLOAD,2022-09-29 08:52:10,15.08834766,0.000148,53.216,263.4472,64.7545,295.36,-4.9455e-05,-1.075e-05,0.0,0 STARLINK-3589,1 51997U 22025AT  22272.36956658 -.00001075  00000-0 -49455-4 0  9991,2 51997  53.2160 263.4472 0001480  64.7545 295.3600 15.08834766 31098,6917.896,95.438,540.785,538.738,0.0
51997.0,STARLINK-3589,PAYLOAD,2022-09-29 16:49:05,15.08862218,0.0001496,53.2162,261.9606,51.2553,308.8573,-0.00030393,-5.125e-05,0.0,0 STARLINK-3589,1 51997U 22025AT  22272.70075921 -.00005125  00000-0 -30393-3 0  9994,2 51997  53.2162 261.9606 0001496  51.2553 308.8573 15.08862218 32665,6917.812,95.436,540.712,538.643,0.0
51997.0,STARLINK-3589,PAYLOAD,2022-09-30 10:18:19,15.08847255,0.0001621,53.2162,258.6899,57.9237,302.1912,0.00010935,1.453e-05,0.0,0 STARLINK-3589,1 51997U 22025AT  22273.42939264  .00001453  00000-0  10935-3 0  9991,2 51997  53.2162 258.6899 0001621  57.9237 302.1912 15.08847255 31256,6917.858,95.437,540.845,538.602,0.0
51997.0,STARLINK-3589,PAYLOAD,2022-09-30 16:39:51,15.08848888,0.0001603,53.2164,257.4999,59.1351,300.9799,0.00011155,1.488e-05,0.0,0 STARLINK-3589,1 51997U 22025AT  22273.69435012  .00001488  00000-0  11155-3 0  9995,2 51997  53.2164 257.4999 0001603  59.1351 300.9799 15.08848888 31293,6917.853,95.437,540.827,538.609,0.0
51997.0,STARLINK-3589,PAYLOAD,2022-10-01 05:22:56,15.08845411,0.0001602,53.2164,255.1211,61.1666,298.9487,0.00013148,1.805e-05,0.0,0 STARLINK-3589,1 51997U 22025AT  22274.22426913  .00001805  00000-0  13148-3 0  9992,2 51997  53.2164 255.1211 0001602  61.1666 298.9487 15.08845411 32892,6917.864000000001,95.437,540.837,538.621,0.0
51997.0,STARLINK-3589,PAYLOAD,2022-10-01 08:33:43,15.0884375,0.0001588999999999,53.2162,254.526,60.9281,299.187,0.00010071,1.315e-05,0.0,0 STARLINK-3589,1 51997U 22025AT  22274.35675064  .00001315  00000-0  10071-3 0  9997,2 51997  53.2162 254.5260 0001589  60.9281 299.1870 15.08843750 31398,6917.869000000002,95.437,540.8330000000002,538.635,0.0
51997.0,STARLINK-3589,PAYLOAD,2022-10-02 05:13:44,15.08841993,0.0001619,53.2162,250.6606,55.567,304.5475,-5.5125e-06,-3.76e-06,0.0,0 STARLINK-3589,1 51997U 22025AT  22275.21787238 -.00000376  00000-0 -55125-5 0  9999,2 51997  53.2162 250.6606 0001619  55.5670 304.5475 15.08841993 33048,6917.874,95.437,540.859,538.619,0.0
51997.0,STARLINK-3589,PAYLOAD,2022-10-02 09:59:54,15.08833944,0.0001587,53.216,249.7688,57.2521,302.8624,-0.00014465,-2.589e-05,0.0,0 STARLINK-3589,1 51997U 22025AT  22275.41660223 -.00002589  00000-0 -14465-3 0  9993,2 51997  53.2160 249.7688 0001587  57.2521 302.8624 15.08833944 33070,6917.899,95.438,540.862,538.6659999999998,0.0
51997.0,STARLINK-3589,PAYLOAD,2022-10-03 05:04:31,15.08844262,0.0001558,53.2159,246.2003,56.5006,303.6135,-1.7038e-05,-5.59e-06,0.0,0 STARLINK-3589,1 51997U 22025AT  22276.21147228 -.00000559  00000-0 -17038-4 0  9992,2 51997  53.2159 246.2003 0001558  56.5006 303.6135 15.08844262 33193,6917.8669999999975,95.437,540.81,538.655,0.0
51997.0,STARLINK-3589,PAYLOAD,2022-10-03 20:58:21,15.08848541,0.0001501,53.216,243.2263,54.3421,305.7711,8.455e-05,1.058e-05,0.0,0 STARLINK-3589,1 51997U 22025AT  22276.87386354  .00001058  00000-0  84550-4 0  9995,2 51997  53.2160 243.2263 0001501  54.3421 305.7711 15.08848541 31774,6917.854,95.437,540.758,538.681,0.0
51997.0,STARLINK-3589,PAYLOAD,2022-10-04 09:41:27,15.08841867,0.0001494,53.2167,240.8478,54.5794,305.5338,9.739e-05,1.262e-05,0.0,0 STARLINK-3589,1 51997U 22025AT  22277.40378527  .00001262  00000-0  97390-4 0  9991,2 51997  53.2167 240.8478 0001494  54.5794 305.5338 15.08841867 31854,6917.875,95.437,540.773,538.706,0.0
51997.0,STARLINK-3589,PAYLOAD,2022-10-04 14:27:36,15.08839397,0.00015,53.2167,239.9556,54.8289,305.2843,8.0933e-05,1e-05,0.0,0 STARLINK-3589,1 51997U 22025AT  22277.60250723  .00001000  00000-0  80933-4 0  9995,2 51997  53.2167 239.9556 0001500  54.8289 305.2843 15.08839397 31886,6917.882,95.438,540.785,538.71,0.0
51997.0,STARLINK-3589,PAYLOAD,2022-10-05 01:35:19,15.08834776,0.0001483,53.2168,237.8745,64.0714,296.0431,-5.9159e-05,-1.229e-05,0.0,0 STARLINK-3589,1 51997U 22025AT  22278.06619747 -.00001229  00000-0 -59159-4 0  9992,2 51997  53.2168 237.8745 0001483  64.0714 296.0431 15.08834776 33473,6917.896,95.438,540.7869999999998,538.735,0.0
51997.0,STARLINK-3589,PAYLOAD,2022-10-05 06:21:28,15.088397199999998,0.0001499,53.2168,236.9825,67.7841,292.331,-1.0404e-05,-4.54e-06,0.0,0 STARLINK-3589,1 51997U 22025AT  22278.26491300 -.00000454  00000-0 -10404-4 0  9996,2 51997  53.2168 236.9825 0001499  67.7841 292.3310 15.08839720 31983,6917.880999999999,95.438,540.783,538.7090000000002,0.0
